start=new Date('2022-11-17T00:00:00.000Z').valueOf();
sats=[{"LAUNCH_DATE":"2020-10-06","TLE_LINE2":"2 46550  53.0532 205.2978 0002227  47.3198 312.7978 15.06402903117239","INCLINATION":"53.0532","GP_ID":"217969648","ECCENTRICITY":"0.00022270","BSTAR":"0.00024905000000","FILE":"3659788","OBJECT_NAME":"STARLINK-1701","MEAN_ANOMALY":"312.7978","OBJECT_TYPE":"PAYLOAD","PERIOD":"95.592","DECAY_DATE":null,"CLASSIFICATION_TYPE":"U","TIME_SYSTEM":"UTC","SEMIMAJOR_AXIS":"6925.340","EPHEMERIS_TYPE":"0","ARG_OF_PERICENTER":"47.3198","ELEMENT_SET_NO":"999","REV_AT_EPOCH":"11723","APOAPSIS":"548.747","EPOCH":"2022-11-16T09:47:45.834432","MEAN_MOTION_DOT":"0.00003430","SITE":"AFETR","CENTER_NAME":"EARTH","RA_OF_ASC_NODE":"205.2978","PERIAPSIS":"545.662","TLE_LINE1":"1 46550U 20070U   22320.40816938  .00003430  00000-0  24905-3 0  9990","MEAN_MOTION_DDOT":"0.0000000000000","REF_FRAME":"TEME","MEAN_MOTION":"15.06402903","RCS_SIZE":"LARGE","MEAN_ELEMENT_THEORY":"SGP4","NORAD_CAT_ID":"46550","COUNTRY_CODE":"US","OBJECT_ID":"2020-070U"},{"EPHEMERIS_TYPE":"0","ELEMENT_SET_NO":"999","ARG_OF_PERICENTER":"155.4349","SEMIMAJOR_AXIS":"6774.332","REV_AT_EPOCH":"11791","APOAPSIS":"399.303","EPOCH":"2022-11-16T20:32:50.981568","RA_OF_ASC_NODE":"160.1982","MEAN_MOTION_DOT":"0.00042517","SITE":"AFETR","CENTER_NAME":"EARTH","PERIAPSIS":"393.091","MEAN_MOTION":"15.57051715","MEAN_MOTION_DDOT":"0.0000000000000","TLE_LINE1":"1 46552U 20070W   22320.85614562  .00042517  00000-0  58079-3 0  9998","REF_FRAME":"TEME","MEAN_ELEMENT_THEORY":"SGP4","RCS_SIZE":"LARGE","COUNTRY_CODE":"US","OBJECT_ID":"2020-070W","NORAD_CAT_ID":"46552","GP_ID":"218012635","TLE_LINE2":"2 46552  53.0488 160.1982 0004585 155.4349 204.6881 15.57051715117917","INCLINATION":"53.0488","LAUNCH_DATE":"2020-10-06","ECCENTRICITY":"0.00045850","FILE":"3660705","BSTAR":"0.00058079000000","OBJECT_NAME":"STARLINK-1649","MEAN_ANOMALY":"204.6881","OBJECT_TYPE":"PAYLOAD","PERIOD":"92.482","DECAY_DATE":null,"CLASSIFICATION_TYPE":"U","TIME_SYSTEM":"UTC"},{"SEMIMAJOR_AXIS":"6925.355","ARG_OF_PERICENTER":"68.4507","ELEMENT_SET_NO":"999","EPHEMERIS_TYPE":"0","APOAPSIS":"548.394","REV_AT_EPOCH":"11771","EPOCH":"2022-11-16T19:03:45.108576","SITE":"AFETR","CENTER_NAME":"EARTH","MEAN_MOTION_DOT":"0.00000707","RA_OF_ASC_NODE":"173.5838","PERIAPSIS":"546.047","REF_FRAME":"TEME","MEAN_MOTION_DDOT":"0.0000000000000","TLE_LINE1":"1 46553U 20070X   22320.79427209  .00000707  00000-0  66351-4 0  9990","MEAN_MOTION":"15.06397776","RCS_SIZE":"LARGE","MEAN_ELEMENT_THEORY":"SGP4","OBJECT_ID":"2020-070X","COUNTRY_CODE":"US","NORAD_CAT_ID":"46553","INCLINATION":"53.0547","TLE_LINE2":"2 46553  53.0547 173.5838 0001694  68.4507 291.6663 15.06397776117715","LAUNCH_DATE":"2020-10-06","GP_ID":"218013388","ECCENTRICITY":"0.00016940","BSTAR":"0.00006635100000","FILE":"3660705","MEAN_ANOMALY":"291.6663","OBJECT_NAME":"STARLINK-1664","PERIOD":"95.592","OBJECT_TYPE":"PAYLOAD","DECAY_DATE":null,"TIME_SYSTEM":"UTC","CLASSIFICATION_TYPE":"U"},{"PERIAPSIS":"546.011","MEAN_MOTION":"15.06398591","REF_FRAME":"TEME","MEAN_MOTION_DDOT":"0.0000000000000","TLE_LINE1":"1 46554U 20070Y   22320.77998595 -.00000218  00000-0  42741-5 0  9996","MEAN_ELEMENT_THEORY":"SGP4","RCS_SIZE":"LARGE","OBJECT_ID":"2020-070Y","COUNTRY_CODE":"US","NORAD_CAT_ID":"46554","ARG_OF_PERICENTER":"69.4793","ELEMENT_SET_NO":"999","EPHEMERIS_TYPE":"0","SEMIMAJOR_AXIS":"6925.353","APOAPSIS":"548.425","REV_AT_EPOCH":"11750","EPOCH":"2022-11-16T18:43:10.786080","RA_OF_ASC_NODE":"188.6210","CENTER_NAME":"EARTH","SITE":"AFETR","MEAN_MOTION_DOT":"-0.00000218","PERIOD":"95.592","OBJECT_TYPE":"PAYLOAD","DECAY_DATE":null,"TIME_SYSTEM":"UTC","CLASSIFICATION_TYPE":"U","GP_ID":"218013634","INCLINATION":"53.0535","TLE_LINE2":"2 46554  53.0535 188.6210 0001743  69.4793 290.6383 15.06398591117508","LAUNCH_DATE":"2020-10-06","ECCENTRICITY":"0.00017430","FILE":"3660705","BSTAR":"0.00000427410000","MEAN_ANOMALY":"290.6383","OBJECT_NAME":"STARLINK-1671"},{"TIME_SYSTEM":"UTC","CLASSIFICATION_TYPE":"U","DECAY_DATE":null,"PERIOD":"95.592","OBJECT_TYPE":"PAYLOAD","MEAN_ANOMALY":"319.1438","OBJECT_NAME":"STARLINK-1676","FILE":"3659788","BSTAR":"0.00000604770000","ECCENTRICITY":"0.00018940","GP_ID":"217969149","LAUNCH_DATE":"2020-10-06","TLE_LINE2":"2 46556  53.0558 205.4328 0001894  40.9693 319.1438 15.06398816117231","INCLINATION":"53.0558","COUNTRY_CODE":"US","OBJECT_ID":"2020-070AA","NORAD_CAT_ID":"46556","MEAN_ELEMENT_THEORY":"SGP4","RCS_SIZE":"LARGE","MEAN_MOTION":"15.06398816","REF_FRAME":"TEME","MEAN_MOTION_DDOT":"0.0000000000000","TLE_LINE1":"1 46556U 20070AA  22320.37498827 -.00000192  00000-0  60477-5 0  9994","PERIAPSIS":"545.906","RA_OF_ASC_NODE":"205.4328","SITE":"AFETR","CENTER_NAME":"EARTH","MEAN_MOTION_DOT":"-0.00000192","EPOCH":"2022-11-16T08:59:58.986528","APOAPSIS":"548.529","REV_AT_EPOCH":"11723","ARG_OF_PERICENTER":"40.9693","ELEMENT_SET_NO":"999","EPHEMERIS_TYPE":"0","SEMIMAJOR_AXIS":"6925.352"},{"OBJECT_TYPE":"PAYLOAD","PERIOD":"95.593","DECAY_DATE":null,"CLASSIFICATION_TYPE":"U","TIME_SYSTEM":"UTC","GP_ID":"218012136","LAUNCH_DATE":"2020-10-06","TLE_LINE2":"2 46557  53.0532 189.3612 0001721  61.6101 298.5062 15.06393312117489","INCLINATION":"53.0532","ECCENTRICITY":"0.00017210","FILE":"3660705","BSTAR":"-0.00001467600000","OBJECT_NAME":"STARLINK-1679","MEAN_ANOMALY":"298.5062","PERIAPSIS":"546.042","MEAN_MOTION":"15.06393312","MEAN_MOTION_DDOT":"0.0000000000000","TLE_LINE1":"1 46557U 20070AB  22320.61780339 -.00000500  00000-0 -14676-4 0  9997","REF_FRAME":"TEME","MEAN_ELEMENT_THEORY":"SGP4","RCS_SIZE":"LARGE","OBJECT_ID":"2020-070AB","COUNTRY_CODE":"US","NORAD_CAT_ID":"46557","EPHEMERIS_TYPE":"0","ELEMENT_SET_NO":"999","ARG_OF_PERICENTER":"61.6101","SEMIMAJOR_AXIS":"6925.369","REV_AT_EPOCH":"11748","APOAPSIS":"548.426","EPOCH":"2022-11-16T14:49:38.212896","RA_OF_ASC_NODE":"189.3612","MEAN_MOTION_DOT":"-0.00000500","CENTER_NAME":"EARTH","SITE":"AFETR"},{"CLASSIFICATION_TYPE":"U","TIME_SYSTEM":"UTC","OBJECT_TYPE":"PAYLOAD","PERIOD":"95.592","DECAY_DATE":null,"FILE":"3659788","BSTAR":"0.00029285000000","OBJECT_NAME":"STARLINK-1680","MEAN_ANOMALY":"287.3333","GP_ID":"217968648","LAUNCH_DATE":"2020-10-06","TLE_LINE2":"2 46558  53.0547 190.5194 0001476  72.7818 287.3333 15.06397143117416","INCLINATION":"53.0547","ECCENTRICITY":"0.00014760","MEAN_ELEMENT_THEORY":"SGP4","RCS_SIZE":"LARGE","COUNTRY_CODE":"US","NORAD_CAT_ID":"46558","OBJECT_ID":"2020-070AC","PERIAPSIS":"546.200","MEAN_MOTION":"15.06397143","TLE_LINE1":"1 46558U 20070AC  22320.35979149  .00004083  00000-0  29285-3 0  9997","MEAN_MOTION_DDOT":"0.0000000000000","REF_FRAME":"TEME","EPOCH":"2022-11-16T08:38:05.984736","RA_OF_ASC_NODE":"190.5194","MEAN_MOTION_DOT":"0.00004083","CENTER_NAME":"EARTH","SITE":"AFETR","EPHEMERIS_TYPE":"0","ARG_OF_PERICENTER":"72.7818","ELEMENT_SET_NO":"999","SEMIMAJOR_AXIS":"6925.357","REV_AT_EPOCH":"11741","APOAPSIS":"548.244"},{"FILE":"3660705","BSTAR":"0.00004445700000","MEAN_ANOMALY":"302.9227","OBJECT_NAME":"STARLINK-1681","GP_ID":"218013134","TLE_LINE2":"2 46559  53.0532 173.1815 0001733  57.1928 302.9227 15.06401909117729","INCLINATION":"53.0532","LAUNCH_DATE":"2020-10-06","ECCENTRICITY":"0.00017330","TIME_SYSTEM":"UTC","CLASSIFICATION_TYPE":"U","PERIOD":"95.592","OBJECT_TYPE":"PAYLOAD","DECAY_DATE":null,"EPOCH":"2022-11-16T21:04:27.184224","RA_OF_ASC_NODE":"173.1815","SITE":"AFETR","CENTER_NAME":"EARTH","MEAN_MOTION_DOT":"0.00000381","ARG_OF_PERICENTER":"57.1928","ELEMENT_SET_NO":"999","EPHEMERIS_TYPE":"0","SEMIMAJOR_AXIS":"6925.343","APOAPSIS":"548.408","REV_AT_EPOCH":"11772","MEAN_ELEMENT_THEORY":"SGP4","RCS_SIZE":"LARGE","NORAD_CAT_ID":"46559","COUNTRY_CODE":"US","OBJECT_ID":"2020-070AD","PERIAPSIS":"546.008","MEAN_MOTION":"15.06401909","REF_FRAME":"TEME","TLE_LINE1":"1 46559U 20070AD  22320.87809241  .00000381  00000-0  44457-4 0  9996","MEAN_MOTION_DDOT":"0.0000000000000"},{"DECAY_DATE":null,"OBJECT_TYPE":"PAYLOAD","PERIOD":"95.591","CLASSIFICATION_TYPE":"U","TIME_SYSTEM":"UTC","ECCENTRICITY":"0.00015930","GP_ID":"218012389","INCLINATION":"53.0535","TLE_LINE2":"2 46560  53.0535 188.3673 0001593  59.1584 300.9562 15.06411156117510","LAUNCH_DATE":"2020-10-06","OBJECT_NAME":"STARLINK-1706","MEAN_ANOMALY":"300.9562","FILE":"3660705","BSTAR":"0.00026138000000","MEAN_MOTION":"15.06411156","MEAN_MOTION_DDOT":"0.0000000000000","TLE_LINE1":"1 46560U 20070AE  22320.83895250  .00003615  00000-0  26138-3 0  9997","REF_FRAME":"TEME","PERIAPSIS":"546.076","COUNTRY_CODE":"US","OBJECT_ID":"2020-070AE","NORAD_CAT_ID":"46560","MEAN_ELEMENT_THEORY":"SGP4","RCS_SIZE":"LARGE","REV_AT_EPOCH":"11751","APOAPSIS":"548.283","EPHEMERIS_TYPE":"0","ELEMENT_SET_NO":"999","ARG_OF_PERICENTER":"59.1584","SEMIMAJOR_AXIS":"6925.314","RA_OF_ASC_NODE":"188.3673","MEAN_MOTION_DOT":"0.00003615","SITE":"AFETR","CENTER_NAME":"EARTH","EPOCH":"2022-11-16T20:08:05.496000"},{"FILE":"3660705","BSTAR":"0.00024810000000","MEAN_ANOMALY":"281.3396","OBJECT_NAME":"STARLINK-1709","GP_ID":"218012636","TLE_LINE2":"2 46561  53.0544 188.5956 0001693  78.7784 281.3396 15.06410996117504","INCLINATION":"53.0544","LAUNCH_DATE":"2020-10-06","ECCENTRICITY":"0.00016930","TIME_SYSTEM":"UTC","CLASSIFICATION_TYPE":"U","PERIOD":"95.591","OBJECT_TYPE":"PAYLOAD","DECAY_DATE":null,"EPOCH":"2022-11-16T18:57:44.817984","RA_OF_ASC_NODE":"188.5956","CENTER_NAME":"EARTH","SITE":"AFETR","MEAN_MOTION_DOT":"0.00003417","ELEMENT_SET_NO":"999","ARG_OF_PERICENTER":"78.7784","EPHEMERIS_TYPE":"0","SEMIMAJOR_AXIS":"6925.315","APOAPSIS":"548.352","REV_AT_EPOCH":"11750","MEAN_ELEMENT_THEORY":"SGP4","RCS_SIZE":"LARGE","COUNTRY_CODE":"US","OBJECT_ID":"2020-070AF","NORAD_CAT_ID":"46561","PERIAPSIS":"546.007","MEAN_MOTION":"15.06410996","REF_FRAME":"TEME","MEAN_MOTION_DDOT":"0.0000000000000","TLE_LINE1":"1 46561U 20070AF  22320.79010206  .00003417  00000-0  24810-3 0  9998"}];
